NORAD_CAT_ID,OBJECT_NAME,OBJECT_TYPE,EPOCH,MEAN_MOTION,ECCENTRICITY,INCLINATION,RA_OF_ASC_NODE,ARG_OF_PERICENTER,MEAN_ANOMALY,BSTAR,MEAN_MOTION_DOT,MEAN_MOTION_DDOT,TLE_LINE0,TLE_LINE1,TLE_LINE2,SEMIMAJOR_AXIS,PERIOD,APOGEE,PERIGEE,DECAYED
53013.0,STARLINK-4177,PAYLOAD,2023-01-21 17:19:01,15.08843534,0.0001564999999999,53.2165,175.1174,74.6577,285.4588,0.00014785,2.066e-05,0.0,0 STARLINK-4177,1 53013U 22076AD  23021.72154757  .00002066  00000-0  14785-3 0  9997,2 53013  53.2165 175.1174 0001565  74.6577 285.4588 15.08843534 30908,6917.87,95.437,540.817,538.6519999999999,0.0
53013.0,STARLINK-4177,PAYLOAD,2023-01-22 09:12:53,15.08839939,0.0001416,53.2161,172.1448,74.6447,285.4701,8.1276e-05,1.006e-05,0.0,0 STARLINK-4177,1 53013U 22076AD  23022.38395155  .00001006  00000-0  81276-4 0  9992,2 53013  53.2161 172.1448 0001416  74.6447 285.4701 15.08839939 31009,6917.880999999999,95.438,540.725,538.766,0.0
53013.0,STARLINK-4177,PAYLOAD,2023-01-23 10:39:04,15.08836098,0.0001619,53.2179,167.3857,87.287,272.8307,3.1678000000000004e-05,2.16e-06,0.0,0 STARLINK-4177,1 53013U 22076AD  23023.44379637  .00000216  00000-0  31678-4 0  9990,2 53013  53.2179 167.3857 0001619  87.2870 272.8307 15.08836098 31165,6917.892,95.438,540.877,538.637,0.0
53013.0,STARLINK-4177,PAYLOAD,2023-01-24 13:40:36,15.08842768,0.0001665,53.2182,162.3307,87.0027,273.1156,8.8079e-05,1.114e-05,0.0,0 STARLINK-4177,1 53013U 22076AD  23024.56987113  .00001114  00000-0  88079-4 0  9993,2 53013  53.2182 162.3307 0001665  87.0027 273.1156 15.08842768 31333,6917.871999999999,95.437,540.889,538.585,0.0
53013.0,STARLINK-4177,PAYLOAD,2023-01-25 13:31:25,15.08827998,0.0001674,53.2181,157.8699,89.7919,270.3265,2.1352e-06,-2.54e-06,0.0,0 STARLINK-4177,1 53013U 22076AD  23025.56348564 -.00000254  00000-0  21352-5 0  9992,2 53013  53.2181 157.8699 0001674  89.7919 270.3265 15.08827998 31017,6917.917,95.438,540.94,538.624,0.0
53013.0,STARLINK-4177,PAYLOAD,2023-01-25 15:06:48,15.08823652,0.0001014999999999,53.2161,157.5716,96.4087,263.7021,1.0116e-05,-1.27e-06,0.0,0 STARLINK-4177,1 53013U 22076AD  23025.62972704 -.00000127  00000-0  10116-4 0  9992,2 53013  53.2161 157.5716 0001015  96.4087 263.7021 15.08823652 31493,6917.93,95.439,540.498,539.0930000000001,0.0
53013.0,STARLINK-4177,PAYLOAD,2023-01-26 08:36:01,15.08844674,0.0001155999999999,53.2168,154.2991,100.9841,259.1282,5.1996e-05,5.400000000000001e-06,0.0,0 STARLINK-4177,1 53013U 22076AD  23026.35835535  .00000540  00000-0  51996-4 0  9992,2 53013  53.2168 154.2991 0001156 100.9841 259.1282 15.08844674 31602,6917.866,95.437,540.531,538.931,0.0
53013.0,STARLINK-4177,PAYLOAD,2023-01-26 13:22:10,15.0884966,0.0001207,53.2164,153.4084,100.2797,259.8332,0.00015742,2.219e-05,0.0,0 STARLINK-4177,1 53013U 22076AD  23026.55706884  .00002219  00000-0  15742-3 0  9991,2 53013  53.2164 153.4084 0001207 100.2797 259.8332 15.08849660 31166,6917.851,95.437,540.5509999999999,538.881,0.0
53013.0,STARLINK-4177,PAYLOAD,2023-01-26 14:57:33,15.08850931,0.0001217999999999,53.2163,153.111,100.4302,259.6828,0.00016994,2.419e-05,0.0,0 STARLINK-4177,1 53013U 22076AD  23026.62330770  .00002419  00000-0  16994-3 0  9998,2 53013  53.2163 153.1110 0001218 100.4302 259.6828 15.08850931 31642,6917.847,95.437,540.555,538.869,0.0
53013.0,STARLINK-4177,PAYLOAD,2023-01-27 13:12:59,15.08828716,0.0001164,53.215,148.9475,126.3286,233.7814,7.1805e-05,8.55e-06,0.0,0 STARLINK-4177,1 53013U 22076AD  23027.55068755  .00000855  00000-0  71805-4 0  9997,2 53013  53.2150 148.9475 0001164 126.3286 233.7814 15.08828716 31310,6917.915,95.438,540.585,538.975,0.0
53013.0,STARLINK-4177,PAYLOAD,2023-01-27 14:48:22,15.08822481,9.03e-05,53.215,148.651,80.2617,279.8477,-8.2711e-05,-1.603e-05,0.0,0 STARLINK-4177,1 53013U 22076AD  23027.61693177 -.00001603  00000-0 -82711-4 0  9998,2 53013  53.2150 148.6510 0000903  80.2617 279.8477 15.08822481 31794,6917.934,95.439,540.424,539.174,0.0
53013.0,STARLINK-4177,PAYLOAD,2023-01-28 00:20:41,15.08834085,8.159999999999999e-05,53.2155,146.8669,78.5728,281.5356,8.2212e-05,1.021e-05,0.0,0 STARLINK-4177,1 53013U 22076AD  23028.01436873  .00001021  00000-0  82212-4 0  9999,2 53013  53.2155 146.8669 0000816  78.5728 281.5356 15.08834085 31856,6917.898,95.438,540.328,539.1990000000001,0.0
53013.0,STARLINK-4177,PAYLOAD,2023-01-28 13:03:46,15.08852686,9.01e-05,53.2149,144.4875,54.7092,305.3984,0.00039638,6.028e-05,0.0,0 STARLINK-4177,1 53013U 22076AD  23028.54428247  .00006028  00000-0  39638-3 0  9998,2 53013  53.2149 144.4875 0000901  54.7092 305.3984 15.08852686 31935,6917.842,95.437,540.33,539.083,0.0
53013.0,STARLINK-4177,PAYLOAD,2023-01-28 16:14:32,15.08859537,8.72e-05,53.2151,143.8912,62.1153,297.9927,0.00072669,0.00011302,0.0,0 STARLINK-4177,1 53013U 22076AD  23028.67676082  .00011302  00000-0  72669-3 0  9996,2 53013  53.2151 143.8912 0000872  62.1153 297.9927 15.08859537 31486,6917.821,95.436,540.289,539.082,0.0
53013.0,STARLINK-4177,PAYLOAD,2023-01-29 06:33:00,15.0885446,0.0001496,53.2145,141.2157,58.2014,301.9124,0.0004261,6.503e-05,0.0,0 STARLINK-4177,1 53013U 22076AD  23029.27292297  .00006503  00000-0  42610-3 0  9995,2 53013  53.2145 141.2157 0001496  58.2014 301.9124 15.08854460 32045,6917.836,95.437,540.736,538.666,0.0
53013.0,STARLINK-4177,PAYLOAD,2023-01-29 16:05:18,15.08855282,9.03e-05,53.2163,139.434,71.0907,289.0183,0.00041706,6.359e-05,0.0,0 STARLINK-4177,1 53013U 22076AD  23029.67035802  .00006359  00000-0  41706-3 0  9990,2 53013  53.2163 139.4340 0000903  71.0907 289.0183 15.08855282 31632,6917.834,95.437,540.323,539.074,0.0
53013.0,STARLINK-4177,PAYLOAD,2023-01-30 06:23:47,15.08840118,0.0001432,53.2144,136.7557,73.4523,286.6626,0.0002533,3.746e-05,0.0,0 STARLINK-4177,1 53013U 22076AD  23030.26652262  .00003746  00000-0  25330-3 0  9994,2 53013  53.2144 136.7557 0001432  73.4523 286.6626 15.08840118 32198,6917.88,95.438,540.736,538.754,0.0
53013.0,STARLINK-4177,PAYLOAD,2023-01-30 11:09:57,15.08837219,0.0001579,53.2155,135.8639,81.3559,278.7612,0.00015566,2.19e-05,0.0,0 STARLINK-4177,1 53013U 22076AD  23030.46524381  .00002190  00000-0  15566-3 0  9998,2 53013  53.2155 135.8639 0001579  81.3559 278.7612 15.08837219 31756,6917.889,95.438,540.846,538.662,0.0
53013.0,STARLINK-4177,PAYLOAD,2023-01-31 12:36:07,15.08848008,0.0001223,53.2155,131.107,75.7752,284.3376,0.0004574,7.001e-05,0.0,0 STARLINK-4177,1 53013U 22076AD  23031.52508267  .00007001  00000-0  45740-3 0  9994,2 53013  53.2155 131.1070 0001223  75.7752 284.3376 15.08848008 32380,6917.856,95.437,540.567,538.875,0.0
53013.0,STARLINK-4177,PAYLOAD,2023-01-31 14:11:30,15.08850078,0.0001176,53.2143,130.8092,74.979,285.1332,0.00050698,7.792e-05,0.0,0 STARLINK-4177,1 53013U 22076AD  23031.59132174  .00007792  00000-0  50698-3 0  9996,2 53013  53.2143 130.8092 0001176  74.9790 285.1332 15.08850078 31927,6917.85,95.437,540.528,538.901,0.0
53013.0,STARLINK-4177,PAYLOAD,2023-02-01 06:05:21,15.08846865,0.000111,53.2137,127.8353,82.2552,277.8567,0.00024417,3.601e-05,0.0,0 STARLINK-4177,1 53013U 22076AD  23032.25372049  .00003601  00000-0  24417-3 0  9992,2 53013  53.2137 127.8353 0001110  82.2552 277.8567 15.08846865 32492,6917.859,95.437,540.492,538.957,0.0
53013.0,STARLINK-4177,PAYLOAD,2023-02-01 12:26:53,15.08851583,0.000116,53.2162,126.6454,108.5188,251.593,0.00028717,4.287e-05,0.0,0 STARLINK-4177,1 53013U 22076AD  23032.51867683  .00004287  00000-0  28717-3 0  9992,2 53013  53.2162 126.6454 0001160 108.5188 251.5930 15.08851583 32060,6917.845,95.437,540.512,538.908,0.0
53013.0,STARLINK-4177,PAYLOAD,2023-02-02 12:17:40,15.08851463,0.0001319,53.2167,122.1851,79.8379,280.2762,0.00022369,3.275e-05,0.0,0 STARLINK-4177,1 53013U 22076AD  23033.51227526  .00003275  00000-0  22369-3 0  9992,2 53013  53.2167 122.1851 0001319  79.8379 280.2762 15.08851463 32211,6917.845,95.437,540.623,538.798,0.0
53013.0,STARLINK-4177,PAYLOAD,2023-02-02 13:53:03,15.0885476,0.0001229,53.2164,121.8878,73.2213,286.8914,0.00031564,4.741e-05,0.0,0 STARLINK-4177,1 53013U 22076AD  23033.57851322  .00004741  00000-0  31564-3 0  9991,2 53013  53.2164 121.8878 0001229  73.2213 286.8914 15.08854760 32694,6917.835,95.437,540.55,538.85,0.0
53013.0,STARLINK-4177,PAYLOAD,2023-02-03 04:11:32,15.08834645,5.91e-05,53.2172,119.2125,91.5336,268.5723,-1.472e-05,-5.22e-06,0.0,0 STARLINK-4177,1 53013U 22076AD  23034.17468023 -.00000522  00000-0 -14720-4 0  9991,2 53013  53.2172 119.2125 0000591  91.5336 268.5723 15.08834645 32784,6917.897,95.438,540.171,539.353,0.0
53013.0,STARLINK-4177,PAYLOAD,2023-02-03 10:33:04,15.08834594,0.0001449,53.2172,118.0224,123.3133,236.7998,-1.9675e-05,-6.01e-06,0.0,0 STARLINK-4177,1 53013U 22076AD  23034.43964053 -.00000601  00000-0 -19675-4 0  9996,2 53013  53.2172 118.0224 0001449 123.3133 236.7998 15.08834594 32350,6917.897,95.438,540.764,538.76,0.0
53013.0,STARLINK-4177,PAYLOAD,2023-02-03 15:19:14,15.088391,0.0001506,53.217,117.13,83.0797,277.0367,0.0001683,2.391e-05,0.0,0 STARLINK-4177,1 53013U 22076AD  23034.63836293  .00002391  00000-0  16830-3 0  9997,2 53013  53.2170 117.1300 0001506  83.0797 277.0367 15.08839100 32384,6917.883,95.438,540.79,538.706,0.0
53013.0,STARLINK-4177,PAYLOAD,2023-02-04 08:48:29,15.08840581,0.0001061,53.2142,113.8585,88.0031,272.1083,0.0002772,4.127e-05,0.0,0 STARLINK-4177,1 53013U 22076AD  23035.36700471  .00004127  00000-0  27720-3 0  9995,2 53013  53.2142 113.8585 0001061  88.0031 272.1083 15.08840581 32963,6917.879,95.438,540.478,539.01,0.0
53013.0,STARLINK-4177,PAYLOAD,2023-02-04 11:59:15,15.08845588,0.0001146,53.2147,113.2639,96.6883,263.4239,0.0003773,5.723e-05,0.0,0 STARLINK-4177,1 53013U 22076AD  23035.49948311  .00005723  00000-0  37730-3 0  9991,2 53013  53.2147 113.2639 0001146  96.6883 263.4239 15.08845588 32515,6917.863,95.437,540.521,538.936,0.0
